RAVAN                   
1 41849U 16067B   18333.21497805  .00001133  00000-0  10113-3 0  9997
2 41849  97.9244  64.4118 0007499 345.5854  14.5153 14.98009095111838
CELTEE 1                
1 41850U 16067C   18333.20617716  .00000758  00000-0  71352-4 0  9998
2 41850  97.9213  63.5458 0008040 344.8756  15.2223 14.96906106111786
OPTICUBE 04             
1 41851U 16067D   18333.18892627  .00000181  00000-0  21126-4 0  9996
2 41851  97.9201  63.3933 0008270 344.0035  16.0924 14.96729780111774
AEROCUBE 8D             
1 41852U 16067E   18332.70820822 -.00000154  00000-0 -82238-5 0  9996
2 41852  97.9216  62.7372 0009265 344.5720  15.5217 14.96593135111684
AEROCUBE 8C             
1 41853U 16067F   18333.19435221  .00000494  00000-0  48707-4 0  9993
2 41853  97.9214  63.1805 0009335 344.8826  15.2115 14.96557169111756
PROMETHEUS 2-1          
1 41854U 16067G   18332.71862362  .00000351  00000-0  36057-4 0  9998
2 41854  97.9219  62.7547 0009710 344.7019  15.3907 14.96710998111683
PROMETHEUS 2-3          
1 41855U 16067H   18333.18935228  .00000472  00000-0  46654-4 0  9991
2 41855  97.9221  63.2399 0009812 343.5780  16.5121 14.96711616111750
ITF-2                   
1 41932U 98067KU  18333.02840955  .00143233  19549-4  31206-3 0  9993
2 41932  51.6235 201.6074 0005466 168.0614 192.0526 15.97948396106890
INS-1B                  
1 41954U 17008G   18333.14343019  .00001081  00000-0  48325-4 0  9998
2 41954  97.4274  35.5854 0010665 128.7212 231.4980 15.23433999 99114
BGUSAT                  
1 41999U 17008BD  18332.86645021  .00001820  00000-0  75185-4 0  9998
2 41999  97.4329  36.9017 0009394 143.4559 216.7322 15.25274199 98522
DIDO-2                  
1 42000U 17008BE  18332.87299143  .00000798  00000-0  36352-4 0  9999
2 42000  97.4291  35.8202 0009524 145.3978 214.7880 15.23522112 98479
PEASSS                  
1 42015U 17008BV  18333.22021789  .00001011  00000-0  44164-4 0  9993
2 42015  97.4292  36.8288 0007316 147.7101 212.4586 15.24394278 99056
AL-FARABI 1             
1 42016U 17008BW  18333.16298773  .00001225  00000-0  52117-4 0  9990
2 42016  97.4302  37.1047 0007208 147.6953 212.4727 15.24905225 99181
NAYIF-1 (EO-88)         
1 42017U 17008BX  18332.89200374  .00001263  00000-0  53587-4 0  9994
2 42017  97.4301  36.8440 0007145 148.5149 211.6518 15.24932356 99163
HAVELSAT                
1 42700U 98067LH  18333.12157252  .00064214  00000-0  26705-3 0  9996
2 42700  51.6259 224.2212 0005727 155.5600 204.5676 15.85093252 88041
CXBN-2                  
1 42704U 98067LM  18333.06783725  .00067525  00000-0  28780-3 0  9996
2 42704  51.6291 226.1750 0004511 134.3159 225.8214 15.84569483 87937
PHOENIX                 
1 42706U 98067LP  18332.97955978  .00032157  00000-0  18998-3 0  9991
2 42706  51.6286 231.6460 0003241 112.0186 248.1159 15.77819176 87849
X-CUBESAT               
1 42707U 98067LQ  18333.09505643  .00088373  00000-0  31482-3 0  9990
2 42707  51.6257 222.4363 0004768 145.9282 214.2030 15.88149481 87967
QBEE50-LTU-OC           
1 42708U 98067LR  18332.95601677  .00064101  00000-0  27069-3 0  9998
2 42708  51.6268 226.1386 0004014 143.8259 216.3016 15.84786618 87862
ALTAIR PATHFINDER       
1 42711U 98067LS  18333.13974756  .00017886  00000-0  15246-3 0  9996
2 42711  51.6340 245.5856 0004726  94.7433 265.4104 15.69620047 87333
SHARC                   
1 42712U 98067LT  18333.15882465  .00040096  00000-0  27875-3 0  9994
2 42712  51.6344 245.0211 0004353 111.8516 248.2946 15.73975855 87582
ZA-AEROSAT              
1 42713U 98067LU  18333.09742281  .00032465  00000-0  20551-3 0  9994
2 42713  51.6338 235.4501 0003883 108.5251 251.6171 15.76246267 87463
CSUNSAT 1               
1 42715U 98067LW  18333.13542807  .00038343  00000-0  22483-3 0  9990
2 42715  51.6329 233.4650 0005002 108.4020 251.7525 15.77888910 87491
SPACECUBE               
1 42717U 98067LY  18332.93468668  .00063641  00000-0  27186-3 0  9995
2 42717  51.6224 226.6578 0004997 150.9734 209.1548 15.84542100 86932
HOOPOE                  
1 42718U 98067LZ  18332.93693489  .00211252  29653-4  41887-3 0  9993
2 42718  51.6214 216.7774 0006144 173.6338 186.4750 15.99473664 87069
NJUST-1                 
1 42722U 98067MB  18333.12597551  .00025853  00000-0  17883-3 0  9993
2 42722  51.6360 238.3899 0006472 129.8900  11.1261 15.74318003 86491
UNSW-ECO                
1 42723U 98067MC  18332.94705883  .00973294  63888-3  64909-3 0  9990
2 42723  51.6318 213.1928 0007027 203.6407 156.4287 16.16375193 86793
LILACSAT-1              
1 42725U 98067ME  18333.19869159  .00049820  00000-0  25376-3 0  9995
2 42725  51.6357 230.5809 0005701 132.3917   1.7670 15.80878233 86511
NSIGHT-1                
1 42726U 98067MF  18333.20448130  .00008087  00000-0  86470-4 0  9993
2 42726  51.6380 253.6530 0005928 125.4236 234.7314 15.64901718 86210
SNUSAT-1                
1 42727U 98067MG  18333.06834166  .00047617  00000-0  24596-3 0  9998
2 42727  51.6307 231.4024 0006711 120.1551 240.0116 15.80583785 86459
I-INSPIRE II            
1 42731U 98067ML  18328.65367517  .20606057  12514-4  45736-3 0  9990
2 42731  51.6195 233.0809 0005495 228.6465 131.7518 16.46306360 85922
POLYITAN-2-SAU          
1 42732U 98067MM  18332.94396823  .00087493  00000-0  31888-3 0  9991
2 42732  51.6280 224.5038 0006044 128.4101 231.7447 15.87682002 86424
SNUSAT-1B               
1 42733U 98067MN  18333.10796680  .00058729  00000-0  27451-3 0  9997
2 42733  51.6273 228.6629 0006457 119.7755 240.3890 15.82656797 86384
BEEAGLESAT              
1 42736U 98067MR  18333.08887679  .00039275  00000-0  22200-3 0  9998
2 42736  51.6303 233.0945 0006592 134.3542 225.8000 15.78685696 86385
UCLSAT                  
1 42765U 17036A   18333.15862594  .00001061  00000-0  49114-4 0  9990
2 42765  97.3809  30.1951 0010817 211.0025 149.0574 15.22250643 79803
LITUANICASAT-2          
1 42768U 17036D   18332.79484498  .00001639  00000-0  74626-4 0  9992
2 42768  97.3832  29.3916 0014899 203.6640 156.3913 15.22008461 79590
AALTO-1                 
1 42775U 17036L   18332.91168036  .00000587  00000-0  29525-4 0  9990
2 42775  97.3799  29.1350 0013533 201.5796 158.4871 15.21010106 79531
URSA MAIOR              
1 42776U 17036M   18332.88836944  .00000693  00000-0  34191-4 0  9990
2 42776  97.3806  29.2011 0013347 201.6434 158.4239 15.21117646 79534
COMPASS 2               
1 42777U 17036N   18332.90193550  .00001353  00000-0  61772-4 0  9992
2 42777  97.3835  29.9053 0012156 203.5551 156.5130 15.22252609 79560
DIAMOND RED             
1 42783U 17036U   18332.87449718  .00000834  00000-0  39758-4 0  9997
2 42783  97.3809  29.6695 0011430 212.7031 147.3499 15.21792538 79550
PEGASUS                 
1 42784U 17036V   18332.88895116  .00000952  00000-0  44617-4 0  9997
2 42784  97.3812  29.8133 0011337 212.4573 147.5967 15.22036444 79569
DIAMOND GREEN           
1 42785U 17036W   18332.61025958  .00000822  00000-0  39251-4 0  9992
2 42785  97.3813  29.4283 0011295 214.2846 145.7662 15.21791349 79584
DIAMOND BLUE            
1 42786U 17036X   18332.87233350  .00000839  00000-0  39998-4 0  9994
2 42786  97.3812  29.6850 0011149 213.4732 146.5800 15.21794055 79624
NUDTSAT                 
1 42787U 17036Y   18332.93338886  .00001665  00000-0  74188-4 0  9990
2 42787  97.3845  30.2434 0009690 219.2323 140.8194 15.22784566 79434
SUCHAI                  
1 42788U 17036Z   18332.87954016  .00001118  00000-0  51416-4 0  9995
2 42788  97.3815  29.9805 0010949 211.8225 148.2351 15.22369889 79644
SKCUBE                  
1 42789U 17036AA  18332.88450679  .00001049  00000-0  48515-4 0  9992
2 42789  97.3812  29.9620 0010800 211.7522 148.3064 15.22303882 79566
VZLUSAT-1               
1 42790U 17036AB  18332.92102603  .00001416  00000-0  63518-4 0  9998
2 42790  97.3821  30.2337 0010452 211.1048 148.9571 15.22792051 79589
ROBUSTA-1B              
1 42792U 17036AD  18332.90247627  .00001037  00000-0  47774-4 0  9999
2 42792  97.3811  30.0777 0010360 212.2947 147.7657 15.22462251 79582
CICERO 6                
1 42793U 17036AE  18332.91950276  .00000809  00000-0  38202-4 0  9994
2 42793  97.3799  30.0183 0009501 213.3054 146.7585 15.22205715 79652
D-SAT                   
1 42794U 17036AF  18332.80937777  .00000259  00000-0  27673-4 0  9993
2 42794  97.5702  21.0563 0128389  94.2693 267.3209 14.90975849 78256
TOKI                    
1 42820U 98067MU  18332.95220133  .00037160  00000-0  22312-3 0  9998
2 42820  51.6319 237.4632 0004033 108.2984 251.8456 15.77375607 79793
MAZAALAI (NUMSAT-1)     
1 42822U 98067MW  18333.15500197  .00038037  00000-0  23436-3 0  9996
2 42822  51.6341 237.3341 0004466 108.8662 251.2822 15.76777887 79779
BRAC ONNESHA            
1 42823U 98067MX  18333.13281949  .00037906  00000-0  23063-3 0  9996
2 42823  51.6302 237.2043 0005931 107.1139 253.0511 15.77055175 79779
NIGERIAEDUSAT-1         
1 42824U 98067MY  18332.93600246  .00034809  00000-0  21678-3 0  9998
2 42824  51.6349 238.9248 0006256 113.2752 246.8907 15.76567063 79756
CORVUS BC2              
1 42846U 17042X   18332.66777980  .00000322  00000-0  37191-4 0  9997
2 42846  97.5830 229.4569 0010050  17.0931 343.0625 14.91889612 74892
CORVUS BC1              
1 42847U 17042Y   18332.70159714 -.00000013  00000-0  40445-5 0  9997
2 42847  97.5831 229.5635 0009695  17.0829 343.0714 14.91989129 74891
SILU-1 (SILKROAD 1)     
1 42903U 17021F   18333.10072815  .00041131  00000-0  19289-3 0  9993
2 42903  42.7762  42.6169 0014756  29.2662  46.9744 15.82291194 75958
MIRATA                  
1 43015U 17073C   18332.76955073  .00000933  00000-0  77773-4 0  9990
2 43015  97.7123 256.9589 0258319  95.5350 267.5382 14.78503176 55457
MAKERSAT 0              
1 43016U 17073D   18332.35315648  .00000620  00000-0  53247-4 0  9997
2 43016  97.7154 256.7277 0260058  97.0269 266.0593 14.78398439 55387
